<?xml version="1.0" encoding="UTF-8" standalone="yes"?>
<gpx version="1.1" creator="outdooractive - http://www.outdooractive.com" xmlns="http://www.topografix.com/GPX/1/1" xmlns:oa="http://www.outdooractive.com/GPX/Extensions/1" xmlns:xsi="http://www.w3.org/2001/XMLSchema-instance" xsi:schemaLocation="http://www.topografix.com/GPX/1/1 http://www.topografix.com/GPX/1/1/gpx.xsd http://www.outdooractive.com/GPX/Extensions/1 https://www.outdooractive.com/schema/gpx_extensions.xsd">
  <metadata>
    <name>euskadi idea etapa 0</name>
    <author>
      <name>Víctor L - Community</name>
    </author>
    <link href="https://www.outdooractive.com/r/338616413"/>
    <time>2026-04-12T10:34:15.773Z</time>
    <extensions>
      <oa:oaCategory>hikingTourTrail</oa:oaCategory>
    </extensions>
  </metadata>
  <trk>
    <name>euskadi idea etapa 0</name>
    <type>hikingTourTrail</type>
    <trkseg>
      <trkpt lat="43.291649" lon="-2.251858">
        <ele>9.5</ele>
        <name>Estazioko kalea, Zumaia (Zumaya), Urola-Kosta (Urola Costa)</name>
        <extensions>
          <oa:Extension>
            <oa:mapZoom>17</oa:mapZoom>
          </oa:Extension>
        </extensions>
      </trkpt>
      <trkpt lat="43.291654" lon="-2.251833">
        <ele>9.5</ele>
      </trkpt>
      <trkpt lat="43.291662" lon="-2.251799">
        <ele>9.6</ele>
      </trkpt>
      <trkpt lat="43.291677" lon="-2.251739">
        <ele>9.7</ele>
      </trkpt>
      <trkpt lat="43.291687" lon="-2.251704">
        <ele>9.8</ele>
      </trkpt>
      <trkpt lat="43.291698" lon="-2.251667">
        <ele>9.8</ele>
      </trkpt>
      <trkpt lat="43.291713" lon="-2.251627">
        <ele>9.9</ele>
      </trkpt>
      <trkpt lat="43.291738" lon="-2.251562">
        <ele>10.0</ele>
      </trkpt>
      <trkpt lat="43.291765" lon="-2.251493">
        <ele>10.1</ele>
      </trkpt>
      <trkpt lat="43.291949" lon="-2.251597">
        <ele>9.1</ele>
      </trkpt>
      <trkpt lat="43.292073" lon="-2.251665">
        <ele>8.1</ele>
      </trkpt>
      <trkpt lat="43.29209" lon="-2.251671">
        <ele>7.9</ele>
      </trkpt>
      <trkpt lat="43.292104" lon="-2.251675">
        <ele>7.8</ele>
      </trkpt>
      <trkpt lat="43.292122" lon="-2.251678">
        <ele>7.7</ele>
      </trkpt>
      <trkpt lat="43.292165" lon="-2.25168">
        <ele>7.4</ele>
      </trkpt>
      <trkpt lat="43.292165" lon="-2.251707">
        <ele>7.4</ele>
      </trkpt>
      <trkpt lat="43.292166" lon="-2.251743">
        <ele>7.4</ele>
      </trkpt>
      <trkpt lat="43.292167" lon="-2.2518">
        <ele>7.4</ele>
      </trkpt>
      <trkpt lat="43.292172" lon="-2.251901">
        <ele>7.3</ele>
      </trkpt>
      <trkpt lat="43.292167" lon="-2.251909">
        <ele>7.3</ele>
      </trkpt>
      <trkpt lat="43.292164" lon="-2.251919">
        <ele>7.3</ele>
      </trkpt>
      <trkpt lat="43.292162" lon="-2.251929">
        <ele>7.3</ele>
      </trkpt>
      <trkpt lat="43.292161" lon="-2.251939">
        <ele>7.2</ele>
      </trkpt>
      <trkpt lat="43.292161" lon="-2.25195">
        <ele>7.2</ele>
      </trkpt>
      <trkpt lat="43.292162" lon="-2.25196">
        <ele>7.1</ele>
      </trkpt>
      <trkpt lat="43.292165" lon="-2.25197">
        <ele>7.1</ele>
      </trkpt>
      <trkpt lat="43.292168" lon="-2.25198">
        <ele>7.0</ele>
      </trkpt>
      <trkpt lat="43.292158" lon="-2.251989">
        <ele>7.0</ele>
      </trkpt>
      <trkpt lat="43.292149" lon="-2.251997">
        <ele>6.9</ele>
      </trkpt>
      <trkpt lat="43.292179" lon="-2.252047">
        <ele>6.4</ele>
      </trkpt>
      <trkpt lat="43.292231" lon="-2.252106">
        <ele>5.9</ele>
      </trkpt>
      <trkpt lat="43.292344" lon="-2.252261">
        <ele>5.2</ele>
      </trkpt>
      <trkpt lat="43.29236" lon="-2.252283">
        <ele>5.2</ele>
      </trkpt>
      <trkpt lat="43.292342" lon="-2.252389">
        <ele>4.5</ele>
      </trkpt>
      <trkpt lat="43.292568" lon="-2.252891">
        <ele>4.4</ele>
      </trkpt>
      <trkpt lat="43.292613" lon="-2.252893">
        <ele>4.8</ele>
      </trkpt>
      <trkpt lat="43.292631" lon="-2.252894">
        <ele>5.0</ele>
      </trkpt>
      <trkpt lat="43.292631" lon="-2.252934">
        <ele>5.0</ele>
      </trkpt>
      <trkpt lat="43.29264" lon="-2.253185">
        <ele>5.0</ele>
      </trkpt>
      <trkpt lat="43.292655" lon="-2.253281">
        <ele>5.0</ele>
      </trkpt>
      <trkpt lat="43.292718" lon="-2.253281">
        <ele>5.0</ele>
      </trkpt>
      <trkpt lat="43.292789" lon="-2.253277">
        <ele>5.2</ele>
      </trkpt>
      <trkpt lat="43.292889" lon="-2.253268">
        <ele>6.0</ele>
      </trkpt>
      <trkpt lat="43.292935" lon="-2.253264">
        <ele>6.4</ele>
      </trkpt>
      <trkpt lat="43.293009" lon="-2.25326">
        <ele>6.9</ele>
      </trkpt>
      <trkpt lat="43.293046" lon="-2.25326">
        <ele>7.0</ele>
      </trkpt>
      <trkpt lat="43.293088" lon="-2.253262">
        <ele>7.0</ele>
      </trkpt>
      <trkpt lat="43.293124" lon="-2.253267">
        <ele>7.0</ele>
      </trkpt>
      <trkpt lat="43.293169" lon="-2.253277">
        <ele>6.8</ele>
      </trkpt>
      <trkpt lat="43.293251" lon="-2.253294">
        <ele>6.5</ele>
      </trkpt>
      <trkpt lat="43.293281" lon="-2.2533">
        <ele>6.3</ele>
      </trkpt>
      <trkpt lat="43.293314" lon="-2.253305">
        <ele>6.1</ele>
      </trkpt>
      <trkpt lat="43.293348" lon="-2.253309">
        <ele>5.8</ele>
      </trkpt>
      <trkpt lat="43.29338" lon="-2.253312">
        <ele>5.5</ele>
      </trkpt>
      <trkpt lat="43.293411" lon="-2.253314">
        <ele>5.2</ele>
      </trkpt>
      <trkpt lat="43.293441" lon="-2.253315">
        <ele>4.8</ele>
      </trkpt>
      <trkpt lat="43.293472" lon="-2.253317">
        <ele>4.4</ele>
      </trkpt>
      <trkpt lat="43.293504" lon="-2.253324">
        <ele>4.0</ele>
      </trkpt>
      <trkpt lat="43.293535" lon="-2.253335">
        <ele>3.7</ele>
      </trkpt>
      <trkpt lat="43.29356" lon="-2.253348">
        <ele>3.4</ele>
      </trkpt>
      <trkpt lat="43.293587" lon="-2.253368">
        <ele>3.2</ele>
      </trkpt>
      <trkpt lat="43.293605" lon="-2.253386">
        <ele>3.1</ele>
      </trkpt>
      <trkpt lat="43.293623" lon="-2.253406">
        <ele>3.1</ele>
      </trkpt>
      <trkpt lat="43.293639" lon="-2.25343">
        <ele>3.1</ele>
      </trkpt>
      <trkpt lat="43.29365" lon="-2.253446">
        <ele>3.2</ele>
      </trkpt>
      <trkpt lat="43.293663" lon="-2.253471">
        <ele>3.2</ele>
      </trkpt>
      <trkpt lat="43.293673" lon="-2.253497">
        <ele>3.3</ele>
      </trkpt>
      <trkpt lat="43.293685" lon="-2.253533">
        <ele>3.5</ele>
      </trkpt>
      <trkpt lat="43.293698" lon="-2.253575">
        <ele>3.7</ele>
      </trkpt>
      <trkpt lat="43.29371" lon="-2.25362">
        <ele>3.9</ele>
      </trkpt>
      <trkpt lat="43.293725" lon="-2.253677">
        <ele>4.4</ele>
      </trkpt>
      <trkpt lat="43.293742" lon="-2.253748">
        <ele>4.9</ele>
      </trkpt>
      <trkpt lat="43.293754" lon="-2.253797">
        <ele>5.4</ele>
      </trkpt>
      <trkpt lat="43.293795" lon="-2.253778">
        <ele>5.2</ele>
      </trkpt>
      <trkpt lat="43.29386" lon="-2.25375">
        <ele>5.0</ele>
      </trkpt>
      <trkpt lat="43.293861" lon="-2.253617">
        <ele>4.1</ele>
      </trkpt>
      <trkpt lat="43.293861" lon="-2.253589">
        <ele>3.9</ele>
      </trkpt>
      <trkpt lat="43.294144" lon="-2.253661">
        <ele>3.4</ele>
      </trkpt>
      <trkpt lat="43.294181" lon="-2.253671">
        <ele>3.3</ele>
      </trkpt>
      <trkpt lat="43.294219" lon="-2.253683">
        <ele>3.2</ele>
      </trkpt>
      <trkpt lat="43.294249" lon="-2.253696">
        <ele>3.2</ele>
      </trkpt>
      <trkpt lat="43.294267" lon="-2.253706">
        <ele>3.2</ele>
      </trkpt>
      <trkpt lat="43.294282" lon="-2.253719">
        <ele>3.2</ele>
      </trkpt>
      <trkpt lat="43.294295" lon="-2.253733">
        <ele>3.3</ele>
      </trkpt>
      <trkpt lat="43.294306" lon="-2.253754">
        <ele>3.3</ele>
      </trkpt>
      <trkpt lat="43.294319" lon="-2.253788">
        <ele>3.5</ele>
      </trkpt>
      <trkpt lat="43.294331" lon="-2.25382">
        <ele>3.6</ele>
      </trkpt>
      <trkpt lat="43.29443" lon="-2.254151">
        <ele>4.2</ele>
      </trkpt>
      <trkpt lat="43.294529" lon="-2.254482">
        <ele>2.2</ele>
      </trkpt>
      <trkpt lat="43.294615" lon="-2.254775">
        <ele>3.1</ele>
      </trkpt>
      <trkpt lat="43.294645" lon="-2.254876">
        <ele>3.6</ele>
      </trkpt>
      <trkpt lat="43.294663" lon="-2.254934">
        <ele>3.8</ele>
      </trkpt>
      <trkpt lat="43.29468" lon="-2.254984">
        <ele>4.0</ele>
      </trkpt>
      <trkpt lat="43.294695" lon="-2.255023">
        <ele>4.2</ele>
      </trkpt>
      <trkpt lat="43.29471" lon="-2.25506">
        <ele>4.4</ele>
      </trkpt>
      <trkpt lat="43.294724" lon="-2.255091">
        <ele>4.6</ele>
      </trkpt>
      <trkpt lat="43.294738" lon="-2.25512">
        <ele>4.8</ele>
      </trkpt>
      <trkpt lat="43.29475" lon="-2.255145">
        <ele>5.0</ele>
      </trkpt>
      <trkpt lat="43.294772" lon="-2.255181">
        <ele>5.2</ele>
      </trkpt>
      <trkpt lat="43.294799" lon="-2.255223">
        <ele>5.4</ele>
      </trkpt>
      <trkpt lat="43.294827" lon="-2.255262">
        <ele>5.6</ele>
      </trkpt>
      <trkpt lat="43.29486" lon="-2.255305">
        <ele>5.7</ele>
      </trkpt>
      <trkpt lat="43.294889" lon="-2.25534">
        <ele>5.6</ele>
      </trkpt>
      <trkpt lat="43.294927" lon="-2.255382">
        <ele>5.5</ele>
      </trkpt>
      <trkpt lat="43.294969" lon="-2.255427">
        <ele>5.3</ele>
      </trkpt>
      <trkpt lat="43.295007" lon="-2.255353">
        <ele>5.0</ele>
      </trkpt>
      <trkpt lat="43.295305" lon="-2.255636">
        <ele>2.9</ele>
      </trkpt>
      <trkpt lat="43.295531" lon="-2.255853">
        <ele>2.1</ele>
      </trkpt>
      <trkpt lat="43.295758" lon="-2.256071">
        <ele>1.9</ele>
      </trkpt>
      <trkpt lat="43.295931" lon="-2.25623">
        <ele>2.1</ele>
      </trkpt>
      <trkpt lat="43.29597" lon="-2.256267">
        <ele>2.2</ele>
      </trkpt>
      <trkpt lat="43.295992" lon="-2.256287">
        <ele>2.2</ele>
      </trkpt>
      <trkpt lat="43.296016" lon="-2.25631">
        <ele>2.3</ele>
      </trkpt>
      <trkpt lat="43.296033" lon="-2.256327">
        <ele>2.4</ele>
      </trkpt>
      <trkpt lat="43.296051" lon="-2.256344">
        <ele>2.5</ele>
      </trkpt>
      <trkpt lat="43.296265" lon="-2.256554">
        <ele>5.9</ele>
      </trkpt>
      <trkpt lat="43.296324" lon="-2.256603">
        <ele>6.9</ele>
      </trkpt>
      <trkpt lat="43.296391" lon="-2.256698">
        <ele>8.4</ele>
      </trkpt>
      <trkpt lat="43.296462" lon="-2.256615">
        <ele>7.6</ele>
      </trkpt>
      <trkpt lat="43.29651" lon="-2.256694">
        <ele>8.4</ele>
      </trkpt>
      <trkpt lat="43.296666" lon="-2.256947">
        <ele>10.0</ele>
      </trkpt>
      <trkpt lat="43.296685" lon="-2.256977">
        <ele>10.2</ele>
      </trkpt>
      <trkpt lat="43.296863" lon="-2.257257">
        <ele>11.7</ele>
      </trkpt>
      <trkpt lat="43.296927" lon="-2.257359">
        <ele>12.2</ele>
      </trkpt>
      <trkpt lat="43.296952" lon="-2.257397">
        <ele>12.3</ele>
      </trkpt>
      <trkpt lat="43.296974" lon="-2.257456">
        <ele>12.5</ele>
      </trkpt>
      <trkpt lat="43.296982" lon="-2.257614">
        <ele>13.2</ele>
      </trkpt>
      <trkpt lat="43.296929" lon="-2.257735">
        <ele>13.9</ele>
      </trkpt>
      <trkpt lat="43.296636" lon="-2.258108">
        <ele>15.1</ele>
      </trkpt>
      <trkpt lat="43.296588" lon="-2.25818">
        <ele>15.1</ele>
      </trkpt>
      <trkpt lat="43.296621" lon="-2.258219">
        <ele>15.4</ele>
      </trkpt>
      <trkpt lat="43.296647" lon="-2.258254">
        <ele>15.6</ele>
      </trkpt>
      <trkpt lat="43.29667" lon="-2.258295">
        <ele>15.9</ele>
      </trkpt>
      <trkpt lat="43.296685" lon="-2.258326">
        <ele>16.0</ele>
      </trkpt>
      <trkpt lat="43.296699" lon="-2.258361">
        <ele>16.1</ele>
      </trkpt>
      <trkpt lat="43.296711" lon="-2.258398">
        <ele>16.2</ele>
      </trkpt>
      <trkpt lat="43.296719" lon="-2.258431">
        <ele>16.3</ele>
      </trkpt>
      <trkpt lat="43.296727" lon="-2.258471">
        <ele>16.5</ele>
      </trkpt>
      <trkpt lat="43.296732" lon="-2.258505">
        <ele>16.6</ele>
      </trkpt>
      <trkpt lat="43.296735" lon="-2.258539">
        <ele>16.8</ele>
      </trkpt>
      <trkpt lat="43.296738" lon="-2.25859">
        <ele>17.1</ele>
      </trkpt>
      <trkpt lat="43.296739" lon="-2.258638">
        <ele>17.5</ele>
      </trkpt>
      <trkpt lat="43.296738" lon="-2.258669">
        <ele>17.7</ele>
      </trkpt>
      <trkpt lat="43.296737" lon="-2.258695">
        <ele>18.0</ele>
      </trkpt>
      <trkpt lat="43.296736" lon="-2.258718">
        <ele>18.3</ele>
      </trkpt>
      <trkpt lat="43.296733" lon="-2.258745">
        <ele>18.6</ele>
      </trkpt>
      <trkpt lat="43.296728" lon="-2.258793">
        <ele>19.1</ele>
      </trkpt>
      <trkpt lat="43.296711" lon="-2.258907">
        <ele>20.3</ele>
      </trkpt>
      <trkpt lat="43.296695" lon="-2.259021">
        <ele>21.1</ele>
      </trkpt>
      <trkpt lat="43.296665" lon="-2.259213">
        <ele>22.3</ele>
      </trkpt>
      <trkpt lat="43.296642" lon="-2.259362">
        <ele>23.3</ele>
      </trkpt>
      <trkpt lat="43.29664" lon="-2.259414">
        <ele>23.7</ele>
      </trkpt>
      <trkpt lat="43.296639" lon="-2.259455">
        <ele>24.0</ele>
      </trkpt>
      <trkpt lat="43.296638" lon="-2.2595">
        <ele>24.3</ele>
      </trkpt>
      <trkpt lat="43.29664" lon="-2.259547">
        <ele>24.6</ele>
      </trkpt>
      <trkpt lat="43.296643" lon="-2.259591">
        <ele>25.0</ele>
      </trkpt>
      <trkpt lat="43.296648" lon="-2.25963">
        <ele>25.3</ele>
      </trkpt>
      <trkpt lat="43.296656" lon="-2.259675">
        <ele>25.6</ele>
      </trkpt>
      <trkpt lat="43.296667" lon="-2.259725">
        <ele>26.0</ele>
      </trkpt>
      <trkpt lat="43.296681" lon="-2.259781">
        <ele>26.5</ele>
      </trkpt>
      <trkpt lat="43.296694" lon="-2.259834">
        <ele>27.1</ele>
      </trkpt>
      <trkpt lat="43.296711" lon="-2.259894">
        <ele>27.7</ele>
      </trkpt>
      <trkpt lat="43.296728" lon="-2.259954">
        <ele>28.3</ele>
      </trkpt>
      <trkpt lat="43.296748" lon="-2.260025">
        <ele>29.0</ele>
      </trkpt>
      <trkpt lat="43.296767" lon="-2.260088">
        <ele>29.5</ele>
      </trkpt>
      <trkpt lat="43.296777" lon="-2.260118">
        <ele>29.7</ele>
      </trkpt>
      <trkpt lat="43.296787" lon="-2.260147">
        <ele>29.9</ele>
      </trkpt>
      <trkpt lat="43.29666" lon="-2.260189">
        <ele>31.0</ele>
      </trkpt>
      <trkpt lat="43.296347" lon="-2.260293">
        <ele>33.2</ele>
      </trkpt>
      <trkpt lat="43.296248" lon="-2.260326">
        <ele>33.1</ele>
      </trkpt>
      <trkpt lat="43.296333" lon="-2.260573">
        <ele>39.3</ele>
      </trkpt>
      <trkpt lat="43.29635" lon="-2.260629">
        <ele>41.2</ele>
      </trkpt>
      <trkpt lat="43.296369" lon="-2.260636">
        <ele>41.5</ele>
      </trkpt>
      <trkpt lat="43.296389" lon="-2.260648">
        <ele>41.9</ele>
      </trkpt>
      <trkpt lat="43.296411" lon="-2.260667">
        <ele>42.5</ele>
      </trkpt>
      <trkpt lat="43.296433" lon="-2.260691">
        <ele>43.1</ele>
      </trkpt>
      <trkpt lat="43.296452" lon="-2.260715">
        <ele>43.7</ele>
      </trkpt>
      <trkpt lat="43.296471" lon="-2.260748">
        <ele>44.4</ele>
      </trkpt>
      <trkpt lat="43.29649" lon="-2.260784">
        <ele>45.0</ele>
      </trkpt>
      <trkpt lat="43.296504" lon="-2.260821">
        <ele>45.6</ele>
      </trkpt>
      <trkpt lat="43.296516" lon="-2.260861">
        <ele>46.3</ele>
      </trkpt>
      <trkpt lat="43.296524" lon="-2.260899">
        <ele>46.9</ele>
      </trkpt>
      <trkpt lat="43.29653" lon="-2.260941">
        <ele>47.7</ele>
      </trkpt>
      <trkpt lat="43.296536" lon="-2.260995">
        <ele>48.7</ele>
      </trkpt>
      <trkpt lat="43.296542" lon="-2.261054">
        <ele>49.8</ele>
      </trkpt>
      <trkpt lat="43.296547" lon="-2.261107">
        <ele>50.8</ele>
      </trkpt>
      <trkpt lat="43.296583" lon="-2.261547">
        <ele>56.8</ele>
      </trkpt>
      <trkpt lat="43.296602" lon="-2.261761">
        <ele>60.1</ele>
      </trkpt>
      <trkpt lat="43.29661" lon="-2.261888">
        <ele>62.3</ele>
      </trkpt>
      <trkpt lat="43.296612" lon="-2.261933">
        <ele>63.0</ele>
      </trkpt>
      <trkpt lat="43.296612" lon="-2.261984">
        <ele>63.7</ele>
      </trkpt>
      <trkpt lat="43.29661" lon="-2.262024">
        <ele>64.3</ele>
      </trkpt>
      <trkpt lat="43.296604" lon="-2.262057">
        <ele>64.8</ele>
      </trkpt>
      <trkpt lat="43.296596" lon="-2.26209">
        <ele>65.3</ele>
      </trkpt>
      <trkpt lat="43.296579" lon="-2.262124">
        <ele>65.9</ele>
      </trkpt>
      <trkpt lat="43.296562" lon="-2.262149">
        <ele>66.3</ele>
      </trkpt>
      <trkpt lat="43.296546" lon="-2.262164">
        <ele>66.6</ele>
      </trkpt>
      <trkpt lat="43.296524" lon="-2.262181">
        <ele>66.9</ele>
      </trkpt>
      <trkpt lat="43.296496" lon="-2.262201">
        <ele>67.2</ele>
      </trkpt>
      <trkpt lat="43.29647" lon="-2.262217">
        <ele>67.4</ele>
      </trkpt>
      <trkpt lat="43.296454" lon="-2.262226">
        <ele>67.5</ele>
      </trkpt>
      <trkpt lat="43.29644" lon="-2.262236">
        <ele>67.6</ele>
      </trkpt>
      <trkpt lat="43.296428" lon="-2.262245">
        <ele>67.6</ele>
      </trkpt>
      <trkpt lat="43.296415" lon="-2.262257">
        <ele>67.7</ele>
      </trkpt>
      <trkpt lat="43.296403" lon="-2.262272">
        <ele>67.7</ele>
      </trkpt>
      <trkpt lat="43.296391" lon="-2.262291">
        <ele>67.9</ele>
      </trkpt>
      <trkpt lat="43.296379" lon="-2.262319">
        <ele>68.2</ele>
      </trkpt>
      <trkpt lat="43.296373" lon="-2.262343">
        <ele>68.5</ele>
      </trkpt>
      <trkpt lat="43.296368" lon="-2.262367">
        <ele>68.8</ele>
      </trkpt>
      <trkpt lat="43.296366" lon="-2.262395">
        <ele>69.2</ele>
      </trkpt>
      <trkpt lat="43.296367" lon="-2.262423">
        <ele>69.6</ele>
      </trkpt>
      <trkpt lat="43.29637" lon="-2.262453">
        <ele>70.1</ele>
      </trkpt>
      <trkpt lat="43.296377" lon="-2.262489">
        <ele>70.7</ele>
      </trkpt>
      <trkpt lat="43.296386" lon="-2.262533">
        <ele>71.4</ele>
      </trkpt>
      <trkpt lat="43.296394" lon="-2.262571">
        <ele>71.9</ele>
      </trkpt>
      <trkpt lat="43.296448" lon="-2.262811">
        <ele>74.4</ele>
      </trkpt>
      <trkpt lat="43.296452" lon="-2.262827">
        <ele>74.6</ele>
      </trkpt>
      <trkpt lat="43.296475" lon="-2.262939">
        <ele>75.2</ele>
      </trkpt>
      <trkpt lat="43.296497" lon="-2.263056">
        <ele>76.1</ele>
      </trkpt>
      <trkpt lat="43.296507" lon="-2.263114">
        <ele>76.7</ele>
      </trkpt>
      <trkpt lat="43.296511" lon="-2.263141">
        <ele>77.1</ele>
      </trkpt>
      <trkpt lat="43.296513" lon="-2.263169">
        <ele>77.5</ele>
      </trkpt>
      <trkpt lat="43.296514" lon="-2.263198">
        <ele>78.0</ele>
      </trkpt>
      <trkpt lat="43.296513" lon="-2.263228">
        <ele>78.6</ele>
      </trkpt>
      <trkpt lat="43.296508" lon="-2.26326">
        <ele>79.3</ele>
      </trkpt>
      <trkpt lat="43.296501" lon="-2.263294">
        <ele>80.0</ele>
      </trkpt>
      <trkpt lat="43.296491" lon="-2.263332">
        <ele>80.9</ele>
      </trkpt>
      <trkpt lat="43.296475" lon="-2.263371">
        <ele>82.0</ele>
      </trkpt>
      <trkpt lat="43.296453" lon="-2.263406">
        <ele>83.0</ele>
      </trkpt>
      <trkpt lat="43.296428" lon="-2.263442">
        <ele>84.1</ele>
      </trkpt>
      <trkpt lat="43.296389" lon="-2.263492">
        <ele>85.6</ele>
      </trkpt>
      <trkpt lat="43.29633" lon="-2.263565">
        <ele>87.3</ele>
      </trkpt>
      <trkpt lat="43.29627" lon="-2.263638">
        <ele>88.6</ele>
      </trkpt>
      <trkpt lat="43.296227" lon="-2.263689">
        <ele>89.1</ele>
      </trkpt>
      <trkpt lat="43.296202" lon="-2.26372">
        <ele>89.4</ele>
      </trkpt>
      <trkpt lat="43.296183" lon="-2.263747">
        <ele>89.7</ele>
      </trkpt>
      <trkpt lat="43.296165" lon="-2.263776">
        <ele>89.9</ele>
      </trkpt>
      <trkpt lat="43.296147" lon="-2.263808">
        <ele>90.2</ele>
      </trkpt>
      <trkpt lat="43.296127" lon="-2.263851">
        <ele>90.6</ele>
      </trkpt>
      <trkpt lat="43.296108" lon="-2.263899">
        <ele>91.1</ele>
      </trkpt>
      <trkpt lat="43.296088" lon="-2.263957">
        <ele>91.6</ele>
      </trkpt>
      <trkpt lat="43.296064" lon="-2.264025">
        <ele>92.0</ele>
      </trkpt>
      <trkpt lat="43.296036" lon="-2.264115">
        <ele>92.5</ele>
      </trkpt>
      <trkpt lat="43.295997" lon="-2.264247">
        <ele>93.5</ele>
      </trkpt>
      <trkpt lat="43.295965" lon="-2.264362">
        <ele>94.8</ele>
      </trkpt>
      <trkpt lat="43.295949" lon="-2.264415">
        <ele>95.4</ele>
      </trkpt>
      <trkpt lat="43.295938" lon="-2.264457">
        <ele>95.8</ele>
      </trkpt>
      <trkpt lat="43.295929" lon="-2.264496">
        <ele>96.1</ele>
      </trkpt>
      <trkpt lat="43.29591" lon="-2.264584">
        <ele>96.9</ele>
      </trkpt>
      <trkpt lat="43.2959" lon="-2.264645">
        <ele>97.4</ele>
      </trkpt>
      <trkpt lat="43.29589" lon="-2.264721">
        <ele>97.8</ele>
      </trkpt>
      <trkpt lat="43.295884" lon="-2.264798">
        <ele>97.9</ele>
      </trkpt>
      <trkpt lat="43.295879" lon="-2.264879">
        <ele>97.8</ele>
      </trkpt>
      <trkpt lat="43.295877" lon="-2.26496">
        <ele>97.7</ele>
      </trkpt>
      <trkpt lat="43.295877" lon="-2.265041">
        <ele>97.8</ele>
      </trkpt>
      <trkpt lat="43.295878" lon="-2.265125">
        <ele>98.1</ele>
      </trkpt>
      <trkpt lat="43.295881" lon="-2.265207">
        <ele>98.5</ele>
      </trkpt>
      <trkpt lat="43.295885" lon="-2.265287">
        <ele>98.8</ele>
      </trkpt>
      <trkpt lat="43.295892" lon="-2.265398">
        <ele>99.1</ele>
      </trkpt>
      <trkpt lat="43.295898" lon="-2.265512">
        <ele>99.5</ele>
      </trkpt>
      <trkpt lat="43.295901" lon="-2.265597">
        <ele>100.1</ele>
      </trkpt>
      <trkpt lat="43.295904" lon="-2.265713">
        <ele>101.3</ele>
      </trkpt>
      <trkpt lat="43.295905" lon="-2.265771">
        <ele>102.0</ele>
      </trkpt>
      <trkpt lat="43.295903" lon="-2.265828">
        <ele>102.7</ele>
      </trkpt>
      <trkpt lat="43.295898" lon="-2.265874">
        <ele>103.3</ele>
      </trkpt>
      <trkpt lat="43.295891" lon="-2.265918">
        <ele>103.7</ele>
      </trkpt>
      <trkpt lat="43.29588" lon="-2.265957">
        <ele>104.1</ele>
      </trkpt>
      <trkpt lat="43.295864" lon="-2.265996">
        <ele>104.4</ele>
      </trkpt>
      <trkpt lat="43.295853" lon="-2.266018">
        <ele>104.6</ele>
      </trkpt>
      <trkpt lat="43.29584" lon="-2.266041">
        <ele>104.8</ele>
      </trkpt>
      <trkpt lat="43.295821" lon="-2.266067">
        <ele>105.1</ele>
      </trkpt>
      <trkpt lat="43.295799" lon="-2.266092">
        <ele>105.3</ele>
      </trkpt>
      <trkpt lat="43.295773" lon="-2.266116">
        <ele>105.5</ele>
      </trkpt>
      <trkpt lat="43.295745" lon="-2.26614">
        <ele>105.8</ele>
      </trkpt>
      <trkpt lat="43.295651" lon="-2.266219">
        <ele>106.8</ele>
      </trkpt>
      <trkpt lat="43.295591" lon="-2.266267">
        <ele>107.5</ele>
      </trkpt>
      <trkpt lat="43.295519" lon="-2.266318">
        <ele>108.5</ele>
      </trkpt>
      <trkpt lat="43.295476" lon="-2.266347">
        <ele>109.2</ele>
      </trkpt>
      <trkpt lat="43.295436" lon="-2.266369">
        <ele>109.8</ele>
      </trkpt>
      <trkpt lat="43.29538" lon="-2.266399">
        <ele>110.7</ele>
      </trkpt>
      <trkpt lat="43.295324" lon="-2.266427">
        <ele>111.5</ele>
      </trkpt>
      <trkpt lat="43.294963" lon="-2.266602">
        <ele>115.7</ele>
      </trkpt>
      <trkpt lat="43.294731" lon="-2.266714">
        <ele>118.7</ele>
      </trkpt>
      <trkpt lat="43.294498" lon="-2.266825">
        <ele>121.4</ele>
      </trkpt>
      <trkpt lat="43.294423" lon="-2.26686">
        <ele>122.5</ele>
      </trkpt>
      <trkpt lat="43.294399" lon="-2.266871">
        <ele>123.0</ele>
      </trkpt>
      <trkpt lat="43.294373" lon="-2.266883">
        <ele>123.5</ele>
      </trkpt>
      <trkpt lat="43.294352" lon="-2.266889">
        <ele>123.8</ele>
      </trkpt>
      <trkpt lat="43.294328" lon="-2.266893">
        <ele>124.2</ele>
      </trkpt>
      <trkpt lat="43.294306" lon="-2.266893">
        <ele>124.4</ele>
      </trkpt>
      <trkpt lat="43.294279" lon="-2.266892">
        <ele>124.6</ele>
      </trkpt>
      <trkpt lat="43.294258" lon="-2.266891">
        <ele>124.8</ele>
      </trkpt>
      <trkpt lat="43.294235" lon="-2.266887">
        <ele>125.0</ele>
      </trkpt>
      <trkpt lat="43.294209" lon="-2.26688">
        <ele>125.1</ele>
      </trkpt>
      <trkpt lat="43.294185" lon="-2.266872">
        <ele>125.1</ele>
      </trkpt>
      <trkpt lat="43.294128" lon="-2.26685">
        <ele>125.0</ele>
      </trkpt>
      <trkpt lat="43.294073" lon="-2.266827">
        <ele>124.9</ele>
      </trkpt>
      <trkpt lat="43.294021" lon="-2.266806">
        <ele>124.8</ele>
      </trkpt>
      <trkpt lat="43.29397" lon="-2.266786">
        <ele>124.7</ele>
      </trkpt>
      <trkpt lat="43.293928" lon="-2.266773">
        <ele>124.5</ele>
      </trkpt>
      <trkpt lat="43.293877" lon="-2.266764">
        <ele>124.5</ele>
      </trkpt>
      <trkpt lat="43.293828" lon="-2.266757">
        <ele>124.4</ele>
      </trkpt>
      <trkpt lat="43.293774" lon="-2.266754">
        <ele>124.3</ele>
      </trkpt>
      <trkpt lat="43.293723" lon="-2.266759">
        <ele>124.3</ele>
      </trkpt>
      <trkpt lat="43.293675" lon="-2.266765">
        <ele>124.4</ele>
      </trkpt>
      <trkpt lat="43.293629" lon="-2.266774">
        <ele>124.6</ele>
      </trkpt>
      <trkpt lat="43.293585" lon="-2.266783">
        <ele>124.9</ele>
      </trkpt>
      <trkpt lat="43.293539" lon="-2.266793">
        <ele>125.3</ele>
      </trkpt>
      <trkpt lat="43.293496" lon="-2.266805">
        <ele>125.8</ele>
      </trkpt>
      <trkpt lat="43.29343" lon="-2.266826">
        <ele>126.6</ele>
      </trkpt>
      <trkpt lat="43.293372" lon="-2.266849">
        <ele>127.2</ele>
      </trkpt>
      <trkpt lat="43.293326" lon="-2.266872">
        <ele>127.6</ele>
      </trkpt>
      <trkpt lat="43.293273" lon="-2.266904">
        <ele>127.9</ele>
      </trkpt>
      <trkpt lat="43.293229" lon="-2.266938">
        <ele>128.0</ele>
      </trkpt>
      <trkpt lat="43.29319" lon="-2.266972">
        <ele>128.1</ele>
      </trkpt>
      <trkpt lat="43.293147" lon="-2.267016">
        <ele>128.1</ele>
      </trkpt>
      <trkpt lat="43.293073" lon="-2.267098">
        <ele>128.0</ele>
      </trkpt>
      <trkpt lat="43.293008" lon="-2.267169">
        <ele>127.9</ele>
      </trkpt>
      <trkpt lat="43.29291" lon="-2.267275">
        <ele>127.9</ele>
      </trkpt>
      <trkpt lat="43.292729" lon="-2.267462">
        <ele>127.2</ele>
      </trkpt>
      <trkpt lat="43.29266" lon="-2.26753">
        <ele>126.5</ele>
      </trkpt>
      <trkpt lat="43.292613" lon="-2.267581">
        <ele>126.1</ele>
      </trkpt>
      <trkpt lat="43.292567" lon="-2.267629">
        <ele>125.6</ele>
      </trkpt>
      <trkpt lat="43.292526" lon="-2.267677">
        <ele>125.3</ele>
      </trkpt>
      <trkpt lat="43.292491" lon="-2.26772">
        <ele>125.1</ele>
      </trkpt>
      <trkpt lat="43.292456" lon="-2.267767">
        <ele>124.7</ele>
      </trkpt>
      <trkpt lat="43.292429" lon="-2.267805">
        <ele>124.4</ele>
      </trkpt>
      <trkpt lat="43.2924" lon="-2.267847">
        <ele>124.1</ele>
      </trkpt>
      <trkpt lat="43.292361" lon="-2.267909">
        <ele>123.6</ele>
      </trkpt>
      <trkpt lat="43.292327" lon="-2.267973">
        <ele>123.4</ele>
      </trkpt>
      <trkpt lat="43.292262" lon="-2.268105">
        <ele>123.1</ele>
      </trkpt>
      <trkpt lat="43.292228" lon="-2.268177">
        <ele>123.1</ele>
      </trkpt>
      <trkpt lat="43.292208" lon="-2.268231">
        <ele>123.1</ele>
      </trkpt>
      <trkpt lat="43.292185" lon="-2.268298">
        <ele>123.2</ele>
      </trkpt>
      <trkpt lat="43.292169" lon="-2.268356">
        <ele>123.4</ele>
      </trkpt>
      <trkpt lat="43.292158" lon="-2.268403">
        <ele>123.6</ele>
      </trkpt>
      <trkpt lat="43.29215" lon="-2.268455">
        <ele>123.9</ele>
      </trkpt>
      <trkpt lat="43.292145" lon="-2.268511">
        <ele>124.2</ele>
      </trkpt>
      <trkpt lat="43.292144" lon="-2.268563">
        <ele>124.5</ele>
      </trkpt>
      <trkpt lat="43.292144" lon="-2.268615">
        <ele>124.8</ele>
      </trkpt>
      <trkpt lat="43.292147" lon="-2.268679">
        <ele>125.2</ele>
      </trkpt>
      <trkpt lat="43.292151" lon="-2.268743">
        <ele>125.5</ele>
      </trkpt>
      <trkpt lat="43.292162" lon="-2.268843">
        <ele>125.9</ele>
      </trkpt>
      <trkpt lat="43.292171" lon="-2.268927">
        <ele>125.8</ele>
      </trkpt>
      <trkpt lat="43.29218" lon="-2.26901">
        <ele>125.2</ele>
      </trkpt>
      <trkpt lat="43.292182" lon="-2.269082">
        <ele>124.4</ele>
      </trkpt>
      <trkpt lat="43.292182" lon="-2.269143">
        <ele>123.7</ele>
      </trkpt>
      <trkpt lat="43.292178" lon="-2.269203">
        <ele>123.0</ele>
      </trkpt>
      <trkpt lat="43.292171" lon="-2.269265">
        <ele>122.3</ele>
      </trkpt>
      <trkpt lat="43.29216" lon="-2.269328">
        <ele>121.5</ele>
      </trkpt>
      <trkpt lat="43.292143" lon="-2.269403">
        <ele>120.7</ele>
      </trkpt>
      <trkpt lat="43.292119" lon="-2.269494">
        <ele>119.8</ele>
      </trkpt>
      <trkpt lat="43.292084" lon="-2.269621">
        <ele>118.9</ele>
      </trkpt>
      <trkpt lat="43.292041" lon="-2.269768">
        <ele>118.2</ele>
      </trkpt>
      <trkpt lat="43.291882" lon="-2.270295">
        <ele>116.6</ele>
      </trkpt>
      <trkpt lat="43.291722" lon="-2.270821">
        <ele>115.8</ele>
      </trkpt>
      <trkpt lat="43.291584" lon="-2.271263">
        <ele>117.7</ele>
      </trkpt>
      <trkpt lat="43.291542" lon="-2.271393">
        <ele>118.6</ele>
      </trkpt>
      <trkpt lat="43.291497" lon="-2.271522">
        <ele>119.6</ele>
      </trkpt>
      <trkpt lat="43.291486" lon="-2.271556">
        <ele>119.9</ele>
      </trkpt>
      <trkpt lat="43.291475" lon="-2.271588">
        <ele>120.1</ele>
      </trkpt>
      <trkpt lat="43.291452" lon="-2.271662">
        <ele>120.4</ele>
      </trkpt>
      <trkpt lat="43.29138" lon="-2.271898">
        <ele>121.0</ele>
      </trkpt>
      <trkpt lat="43.291358" lon="-2.271967">
        <ele>121.4</ele>
      </trkpt>
      <trkpt lat="43.291337" lon="-2.272027">
        <ele>121.9</ele>
      </trkpt>
      <trkpt lat="43.291321" lon="-2.272066">
        <ele>122.3</ele>
      </trkpt>
      <trkpt lat="43.291299" lon="-2.272109">
        <ele>122.8</ele>
      </trkpt>
      <trkpt lat="43.291278" lon="-2.272144">
        <ele>123.2</ele>
      </trkpt>
      <trkpt lat="43.291107" lon="-2.272425">
        <ele>125.2</ele>
      </trkpt>
      <trkpt lat="43.290858" lon="-2.272798">
        <ele>125.7</ele>
      </trkpt>
      <trkpt lat="43.290662" lon="-2.273058">
        <ele>127.6</ele>
      </trkpt>
      <trkpt lat="43.290601" lon="-2.273193">
        <ele>128.2</ele>
      </trkpt>
      <trkpt lat="43.290569" lon="-2.273313">
        <ele>128.7</ele>
      </trkpt>
      <trkpt lat="43.290547" lon="-2.273447">
        <ele>129.1</ele>
      </trkpt>
      <trkpt lat="43.290527" lon="-2.273728">
        <ele>130.7</ele>
      </trkpt>
      <trkpt lat="43.290523" lon="-2.273828">
        <ele>131.7</ele>
      </trkpt>
      <trkpt lat="43.290497" lon="-2.273934">
        <ele>132.5</ele>
      </trkpt>
      <trkpt lat="43.290394" lon="-2.274108">
        <ele>134.4</ele>
      </trkpt>
      <trkpt lat="43.290381" lon="-2.274125">
        <ele>134.5</ele>
      </trkpt>
      <trkpt lat="43.290235" lon="-2.274256">
        <ele>136.6</ele>
      </trkpt>
      <trkpt lat="43.289909" lon="-2.274427">
        <ele>144.3</ele>
      </trkpt>
      <trkpt lat="43.289754" lon="-2.274549">
        <ele>147.4</ele>
      </trkpt>
      <trkpt lat="43.289583" lon="-2.274696">
        <ele>149.5</ele>
      </trkpt>
      <trkpt lat="43.289429" lon="-2.274799">
        <ele>152.2</ele>
      </trkpt>
      <trkpt lat="43.289321" lon="-2.274881">
        <ele>154.1</ele>
      </trkpt>
      <trkpt lat="43.289178" lon="-2.27504">
        <ele>154.9</ele>
      </trkpt>
      <trkpt lat="43.288953" lon="-2.275316">
        <ele>157.1</ele>
      </trkpt>
      <trkpt lat="43.288731" lon="-2.275607">
        <ele>157.5</ele>
      </trkpt>
      <trkpt lat="43.288562" lon="-2.275821">
        <ele>158.2</ele>
      </trkpt>
      <trkpt lat="43.288393" lon="-2.276035">
        <ele>159.9</ele>
      </trkpt>
      <trkpt lat="43.288186" lon="-2.276261">
        <ele>160.2</ele>
      </trkpt>
      <trkpt lat="43.287954" lon="-2.27649">
        <ele>160.4</ele>
      </trkpt>
      <trkpt lat="43.287841" lon="-2.276616">
        <ele>162.0</ele>
      </trkpt>
      <trkpt lat="43.287785" lon="-2.276727">
        <ele>162.4</ele>
      </trkpt>
      <trkpt lat="43.287731" lon="-2.276893">
        <ele>161.9</ele>
      </trkpt>
      <trkpt lat="43.287588" lon="-2.277371">
        <ele>164.7</ele>
      </trkpt>
      <trkpt lat="43.287491" lon="-2.277676">
        <ele>165.4</ele>
      </trkpt>
      <trkpt lat="43.287421" lon="-2.277837">
        <ele>165.5</ele>
      </trkpt>
      <trkpt lat="43.287407" lon="-2.27787">
        <ele>165.6</ele>
      </trkpt>
      <trkpt lat="43.287306" lon="-2.278244">
        <ele>166.7</ele>
      </trkpt>
      <trkpt lat="43.287252" lon="-2.278675">
        <ele>168.0</ele>
      </trkpt>
      <trkpt lat="43.287253" lon="-2.278803">
        <ele>168.6</ele>
      </trkpt>
      <trkpt lat="43.287266" lon="-2.27893">
        <ele>169.0</ele>
      </trkpt>
      <trkpt lat="43.287313" lon="-2.279088">
        <ele>169.5</ele>
      </trkpt>
      <trkpt lat="43.287383" lon="-2.279228">
        <ele>170.0</ele>
      </trkpt>
      <trkpt lat="43.287703" lon="-2.279634">
        <ele>171.6</ele>
      </trkpt>
      <trkpt lat="43.288023" lon="-2.28004">
        <ele>169.8</ele>
      </trkpt>
      <trkpt lat="43.28822" lon="-2.280265">
        <ele>169.4</ele>
      </trkpt>
      <trkpt lat="43.288312" lon="-2.280507">
        <ele>169.6</ele>
      </trkpt>
      <trkpt lat="43.288386" lon="-2.280729">
        <ele>171.5</ele>
      </trkpt>
      <trkpt lat="43.288403" lon="-2.28093">
        <ele>173.1</ele>
      </trkpt>
      <trkpt lat="43.28841" lon="-2.281224">
        <ele>175.3</ele>
      </trkpt>
      <trkpt lat="43.288483" lon="-2.28174">
        <ele>177.2</ele>
      </trkpt>
      <trkpt lat="43.288534" lon="-2.282186">
        <ele>181.2</ele>
      </trkpt>
      <trkpt lat="43.288561" lon="-2.282693">
        <ele>185.9</ele>
      </trkpt>
      <trkpt lat="43.288567" lon="-2.283103">
        <ele>190.6</ele>
      </trkpt>
      <trkpt lat="43.288573" lon="-2.283513">
        <ele>196.2</ele>
      </trkpt>
      <trkpt lat="43.288553" lon="-2.283956">
        <ele>202.1</ele>
      </trkpt>
      <trkpt lat="43.288505" lon="-2.284221">
        <ele>203.2</ele>
      </trkpt>
      <trkpt lat="43.288415" lon="-2.284461">
        <ele>203.0</ele>
      </trkpt>
      <trkpt lat="43.288284" lon="-2.284702">
        <ele>202.3</ele>
      </trkpt>
      <trkpt lat="43.28825" lon="-2.284813">
        <ele>201.9</ele>
      </trkpt>
      <trkpt lat="43.288237" lon="-2.284979">
        <ele>201.4</ele>
      </trkpt>
      <trkpt lat="43.288246" lon="-2.285163">
        <ele>201.6</ele>
      </trkpt>
      <trkpt lat="43.288287" lon="-2.285405">
        <ele>201.4</ele>
      </trkpt>
      <trkpt lat="43.288373" lon="-2.285777">
        <ele>201.0</ele>
      </trkpt>
      <trkpt lat="43.288449" lon="-2.286208">
        <ele>200.8</ele>
      </trkpt>
      <trkpt lat="43.28848" lon="-2.286346">
        <ele>200.8</ele>
      </trkpt>
      <trkpt lat="43.288428" lon="-2.286382">
        <ele>200.9</ele>
      </trkpt>
      <trkpt lat="43.288049" lon="-2.286548">
        <ele>200.9</ele>
      </trkpt>
      <trkpt lat="43.287902" lon="-2.286616">
        <ele>199.5</ele>
      </trkpt>
      <trkpt lat="43.287855" lon="-2.28665">
        <ele>199.1</ele>
      </trkpt>
      <trkpt lat="43.287776" lon="-2.286763">
        <ele>198.4</ele>
      </trkpt>
      <trkpt lat="43.28773" lon="-2.286864">
        <ele>198.0</ele>
      </trkpt>
      <trkpt lat="43.287629" lon="-2.287158">
        <ele>197.1</ele>
      </trkpt>
      <trkpt lat="43.28758" lon="-2.287306">
        <ele>196.3</ele>
      </trkpt>
      <trkpt lat="43.28757" lon="-2.287437">
        <ele>195.7</ele>
      </trkpt>
      <trkpt lat="43.287572" lon="-2.287517">
        <ele>195.4</ele>
      </trkpt>
      <trkpt lat="43.287578" lon="-2.287733">
        <ele>194.5</ele>
      </trkpt>
      <trkpt lat="43.287561" lon="-2.287882">
        <ele>194.3</ele>
      </trkpt>
      <trkpt lat="43.28752" lon="-2.288055">
        <ele>194.3</ele>
      </trkpt>
      <trkpt lat="43.28748" lon="-2.288141">
        <ele>193.9</ele>
      </trkpt>
      <trkpt lat="43.287372" lon="-2.288361">
        <ele>192.9</ele>
      </trkpt>
      <trkpt lat="43.287319" lon="-2.288468">
        <ele>192.4</ele>
      </trkpt>
      <trkpt lat="43.287032" lon="-2.288936">
        <ele>192.7</ele>
      </trkpt>
      <trkpt lat="43.28694" lon="-2.289132">
        <ele>193.5</ele>
      </trkpt>
      <trkpt lat="43.286862" lon="-2.289334">
        <ele>195.2</ele>
      </trkpt>
      <trkpt lat="43.286797" lon="-2.289561">
        <ele>196.8</ele>
      </trkpt>
      <trkpt lat="43.286775" lon="-2.289766">
        <ele>198.0</ele>
      </trkpt>
      <trkpt lat="43.28677" lon="-2.289965">
        <ele>198.6</ele>
      </trkpt>
      <trkpt lat="43.286744" lon="-2.290127">
        <ele>198.7</ele>
      </trkpt>
      <trkpt lat="43.286695" lon="-2.290446">
        <ele>199.8</ele>
      </trkpt>
      <trkpt lat="43.286652" lon="-2.290693">
        <ele>201.1</ele>
      </trkpt>
      <trkpt lat="43.286589" lon="-2.290949">
        <ele>202.0</ele>
      </trkpt>
      <trkpt lat="43.28651" lon="-2.291194">
        <ele>202.1</ele>
      </trkpt>
      <trkpt lat="43.286367" lon="-2.291678">
        <ele>201.9</ele>
      </trkpt>
      <trkpt lat="43.286324" lon="-2.291808">
        <ele>202.0</ele>
      </trkpt>
      <trkpt lat="43.286232" lon="-2.291985">
        <ele>202.0</ele>
      </trkpt>
      <trkpt lat="43.286206" lon="-2.292024">
        <ele>201.9</ele>
      </trkpt>
      <trkpt lat="43.286196" lon="-2.292081">
        <ele>201.7</ele>
      </trkpt>
      <trkpt lat="43.286215" lon="-2.292367">
        <ele>200.7</ele>
      </trkpt>
      <trkpt lat="43.286217" lon="-2.292478">
        <ele>200.1</ele>
      </trkpt>
      <trkpt lat="43.286196" lon="-2.292517">
        <ele>199.9</ele>
      </trkpt>
      <trkpt lat="43.28612" lon="-2.292682">
        <ele>198.6</ele>
      </trkpt>
      <trkpt lat="43.286097" lon="-2.292791">
        <ele>198.0</ele>
      </trkpt>
      <trkpt lat="43.286091" lon="-2.293056">
        <ele>198.0</ele>
      </trkpt>
      <trkpt lat="43.286086" lon="-2.293288">
        <ele>198.8</ele>
      </trkpt>
      <trkpt lat="43.286136" lon="-2.293455">
        <ele>199.4</ele>
      </trkpt>
      <trkpt lat="43.286171" lon="-2.293502">
        <ele>199.6</ele>
      </trkpt>
      <trkpt lat="43.286231" lon="-2.293583">
        <ele>199.8</ele>
      </trkpt>
      <trkpt lat="43.286309" lon="-2.293781">
        <ele>200.0</ele>
      </trkpt>
      <trkpt lat="43.286531" lon="-2.294261">
        <ele>202.9</ele>
      </trkpt>
      <trkpt lat="43.286622" lon="-2.294415">
        <ele>204.1</ele>
      </trkpt>
      <trkpt lat="43.286743" lon="-2.294661">
        <ele>204.9</ele>
      </trkpt>
      <trkpt lat="43.286843" lon="-2.294828">
        <ele>205.1</ele>
      </trkpt>
      <trkpt lat="43.286957" lon="-2.29496">
        <ele>204.5</ele>
      </trkpt>
      <trkpt lat="43.287093" lon="-2.29512">
        <ele>203.3</ele>
      </trkpt>
      <trkpt lat="43.287232" lon="-2.295278">
        <ele>201.8</ele>
      </trkpt>
      <trkpt lat="43.28728" lon="-2.295338">
        <ele>201.4</ele>
      </trkpt>
      <trkpt lat="43.287324" lon="-2.295388">
        <ele>200.9</ele>
      </trkpt>
      <trkpt lat="43.287553" lon="-2.295463">
        <ele>197.8</ele>
      </trkpt>
      <trkpt lat="43.287661" lon="-2.2955">
        <ele>197.1</ele>
      </trkpt>
      <trkpt lat="43.287745" lon="-2.29556">
        <ele>196.4</ele>
      </trkpt>
      <trkpt lat="43.287799" lon="-2.29567">
        <ele>194.8</ele>
      </trkpt>
      <trkpt lat="43.28781" lon="-2.295769">
        <ele>193.2</ele>
      </trkpt>
      <trkpt lat="43.287774" lon="-2.295943">
        <ele>191.4</ele>
      </trkpt>
      <trkpt lat="43.2877" lon="-2.29621">
        <ele>190.5</ele>
      </trkpt>
      <trkpt lat="43.287593" lon="-2.296574">
        <ele>191.3</ele>
      </trkpt>
      <trkpt lat="43.287558" lon="-2.296782">
        <ele>191.9</ele>
      </trkpt>
      <trkpt lat="43.287568" lon="-2.296806">
        <ele>191.8</ele>
      </trkpt>
      <trkpt lat="43.287596" lon="-2.296824">
        <ele>191.6</ele>
      </trkpt>
      <trkpt lat="43.287694" lon="-2.296863">
        <ele>191.2</ele>
      </trkpt>
      <trkpt lat="43.287857" lon="-2.296932">
        <ele>191.3</ele>
      </trkpt>
      <trkpt lat="43.288274" lon="-2.297045">
        <ele>190.9</ele>
      </trkpt>
      <trkpt lat="43.288391" lon="-2.297085">
        <ele>190.7</ele>
      </trkpt>
      <trkpt lat="43.288478" lon="-2.297138">
        <ele>190.9</ele>
      </trkpt>
      <trkpt lat="43.288573" lon="-2.297215">
        <ele>192.1</ele>
      </trkpt>
      <trkpt lat="43.288712" lon="-2.297391">
        <ele>197.1</ele>
      </trkpt>
      <trkpt lat="43.288856" lon="-2.297479">
        <ele>198.7</ele>
      </trkpt>
      <trkpt lat="43.289028" lon="-2.297505">
        <ele>197.2</ele>
      </trkpt>
      <trkpt lat="43.289273" lon="-2.297504">
        <ele>193.5</ele>
      </trkpt>
      <trkpt lat="43.289529" lon="-2.29758">
        <ele>194.0</ele>
      </trkpt>
      <trkpt lat="43.289943" lon="-2.297705">
        <ele>198.8</ele>
      </trkpt>
      <trkpt lat="43.290308" lon="-2.297806">
        <ele>206.0</ele>
      </trkpt>
      <trkpt lat="43.290593" lon="-2.297827">
        <ele>203.4</ele>
      </trkpt>
      <trkpt lat="43.290879" lon="-2.297848">
        <ele>201.3</ele>
      </trkpt>
      <trkpt lat="43.290993" lon="-2.297839">
        <ele>200.4</ele>
      </trkpt>
      <trkpt lat="43.291115" lon="-2.297814">
        <ele>199.0</ele>
      </trkpt>
      <trkpt lat="43.291231" lon="-2.297739">
        <ele>196.4</ele>
      </trkpt>
      <trkpt lat="43.291344" lon="-2.297722">
        <ele>195.5</ele>
      </trkpt>
      <trkpt lat="43.291471" lon="-2.29773">
        <ele>194.9</ele>
      </trkpt>
      <trkpt lat="43.291554" lon="-2.297769">
        <ele>194.7</ele>
      </trkpt>
      <trkpt lat="43.291606" lon="-2.297822">
        <ele>194.6</ele>
      </trkpt>
      <trkpt lat="43.291671" lon="-2.297937">
        <ele>194.2</ele>
      </trkpt>
      <trkpt lat="43.291755" lon="-2.298122">
        <ele>192.5</ele>
      </trkpt>
      <trkpt lat="43.291876" lon="-2.298324">
        <ele>189.2</ele>
      </trkpt>
      <trkpt lat="43.292016" lon="-2.298395">
        <ele>184.9</ele>
      </trkpt>
      <trkpt lat="43.292208" lon="-2.29847">
        <ele>179.7</ele>
      </trkpt>
      <trkpt lat="43.292267" lon="-2.298529">
        <ele>178.8</ele>
      </trkpt>
      <trkpt lat="43.292294" lon="-2.298588">
        <ele>178.5</ele>
      </trkpt>
      <trkpt lat="43.292305" lon="-2.298682">
        <ele>178.2</ele>
      </trkpt>
      <trkpt lat="43.29229" lon="-2.298763">
        <ele>177.9</ele>
      </trkpt>
      <trkpt lat="43.292182" lon="-2.299036">
        <ele>176.9</ele>
      </trkpt>
      <trkpt lat="43.292046" lon="-2.299373">
        <ele>173.2</ele>
      </trkpt>
      <trkpt lat="43.291948" lon="-2.29967">
        <ele>170.6</ele>
      </trkpt>
      <trkpt lat="43.291849" lon="-2.299966">
        <ele>169.9</ele>
      </trkpt>
      <trkpt lat="43.291822" lon="-2.30007">
        <ele>169.6</ele>
      </trkpt>
      <trkpt lat="43.291756" lon="-2.300274">
        <ele>168.9</ele>
      </trkpt>
      <trkpt lat="43.291664" lon="-2.300512">
        <ele>170.1</ele>
      </trkpt>
      <trkpt lat="43.291634" lon="-2.300653">
        <ele>170.9</ele>
      </trkpt>
      <trkpt lat="43.291636" lon="-2.300738">
        <ele>171.1</ele>
      </trkpt>
      <trkpt lat="43.291663" lon="-2.300797">
        <ele>170.8</ele>
      </trkpt>
      <trkpt lat="43.291885" lon="-2.301013">
        <ele>168.9</ele>
      </trkpt>
      <trkpt lat="43.292012" lon="-2.301141">
        <ele>168.2</ele>
      </trkpt>
      <trkpt lat="43.292131" lon="-2.30128">
        <ele>168.0</ele>
      </trkpt>
      <trkpt lat="43.292192" lon="-2.301358">
        <ele>168.1</ele>
      </trkpt>
      <trkpt lat="43.292262" lon="-2.301334">
        <ele>167.0</ele>
      </trkpt>
      <trkpt lat="43.29246" lon="-2.301314">
        <ele>163.9</ele>
      </trkpt>
      <trkpt lat="43.292547" lon="-2.301351">
        <ele>163.0</ele>
      </trkpt>
      <trkpt lat="43.292684" lon="-2.30153">
        <ele>162.0</ele>
      </trkpt>
      <trkpt lat="43.292755" lon="-2.30161">
        <ele>160.6</ele>
      </trkpt>
      <trkpt lat="43.292858" lon="-2.301683">
        <ele>158.6</ele>
      </trkpt>
      <trkpt lat="43.293121" lon="-2.301688">
        <ele>155.2</ele>
      </trkpt>
      <trkpt lat="43.293193" lon="-2.301698">
        <ele>154.5</ele>
      </trkpt>
      <trkpt lat="43.293275" lon="-2.301732">
        <ele>153.2</ele>
      </trkpt>
      <trkpt lat="43.293682" lon="-2.301985">
        <ele>141.4</ele>
      </trkpt>
      <trkpt lat="43.293762" lon="-2.302043">
        <ele>139.9</ele>
      </trkpt>
      <trkpt lat="43.293837" lon="-2.302183">
        <ele>137.0</ele>
      </trkpt>
      <trkpt lat="43.293999" lon="-2.302461">
        <ele>131.0</ele>
      </trkpt>
      <trkpt lat="43.294023" lon="-2.302576">
        <ele>128.9</ele>
      </trkpt>
      <trkpt lat="43.294023" lon="-2.302697">
        <ele>126.4</ele>
      </trkpt>
      <trkpt lat="43.294053" lon="-2.302779">
        <ele>124.9</ele>
      </trkpt>
      <trkpt lat="43.294073" lon="-2.302813">
        <ele>124.3</ele>
      </trkpt>
      <trkpt lat="43.294112" lon="-2.302832">
        <ele>124.2</ele>
      </trkpt>
      <trkpt lat="43.294095" lon="-2.302886">
        <ele>122.6</ele>
      </trkpt>
      <trkpt lat="43.293795" lon="-2.302952">
        <ele>120.6</ele>
      </trkpt>
      <trkpt lat="43.293679" lon="-2.302975">
        <ele>121.8</ele>
      </trkpt>
      <trkpt lat="43.293532" lon="-2.303027">
        <ele>123.6</ele>
      </trkpt>
      <trkpt lat="43.29337" lon="-2.303084">
        <ele>127.2</ele>
      </trkpt>
      <trkpt lat="43.293305" lon="-2.303137">
        <ele>128.4</ele>
      </trkpt>
      <trkpt lat="43.293271" lon="-2.303253">
        <ele>127.3</ele>
      </trkpt>
      <trkpt lat="43.293242" lon="-2.303768">
        <ele>117.4</ele>
      </trkpt>
      <trkpt lat="43.29322" lon="-2.303953">
        <ele>113.9</ele>
      </trkpt>
      <trkpt lat="43.29323" lon="-2.30411">
        <ele>110.0</ele>
      </trkpt>
      <trkpt lat="43.293259" lon="-2.304177">
        <ele>107.9</ele>
      </trkpt>
      <trkpt lat="43.293284" lon="-2.3043">
        <ele>104.9</ele>
      </trkpt>
      <trkpt lat="43.293347" lon="-2.304509">
        <ele>99.5</ele>
      </trkpt>
      <trkpt lat="43.293453" lon="-2.304658">
        <ele>95.7</ele>
      </trkpt>
      <trkpt lat="43.293604" lon="-2.304774">
        <ele>93.1</ele>
      </trkpt>
      <trkpt lat="43.29385" lon="-2.304907">
        <ele>92.3</ele>
      </trkpt>
      <trkpt lat="43.294091" lon="-2.305013">
        <ele>91.2</ele>
      </trkpt>
      <trkpt lat="43.294292" lon="-2.305072">
        <ele>87.2</ele>
      </trkpt>
      <trkpt lat="43.29452" lon="-2.30512">
        <ele>80.7</ele>
      </trkpt>
      <trkpt lat="43.294905" lon="-2.305249">
        <ele>71.0</ele>
      </trkpt>
      <trkpt lat="43.295173" lon="-2.305406">
        <ele>66.0</ele>
      </trkpt>
      <trkpt lat="43.295462" lon="-2.305679">
        <ele>61.3</ele>
      </trkpt>
      <trkpt lat="43.295598" lon="-2.305892">
        <ele>58.1</ele>
      </trkpt>
      <trkpt lat="43.295721" lon="-2.305992">
        <ele>56.5</ele>
      </trkpt>
      <trkpt lat="43.295743" lon="-2.306012">
        <ele>56.2</ele>
      </trkpt>
      <trkpt lat="43.295808" lon="-2.306084">
        <ele>55.3</ele>
      </trkpt>
      <trkpt lat="43.295857" lon="-2.306133">
        <ele>54.8</ele>
      </trkpt>
      <trkpt lat="43.295955" lon="-2.306247">
        <ele>53.6</ele>
      </trkpt>
      <trkpt lat="43.296013" lon="-2.306339">
        <ele>51.6</ele>
      </trkpt>
      <trkpt lat="43.296053" lon="-2.306401">
        <ele>50.0</ele>
      </trkpt>
      <trkpt lat="43.296077" lon="-2.306399">
        <ele>49.9</ele>
      </trkpt>
      <trkpt lat="43.296066" lon="-2.306301">
        <ele>52.4</ele>
      </trkpt>
      <trkpt lat="43.296039" lon="-2.306181">
        <ele>55.1</ele>
      </trkpt>
      <trkpt lat="43.295991" lon="-2.305958">
        <ele>56.8</ele>
      </trkpt>
      <trkpt lat="43.295992" lon="-2.305803">
        <ele>57.1</ele>
      </trkpt>
      <trkpt lat="43.296015" lon="-2.305734">
        <ele>57.0</ele>
      </trkpt>
      <trkpt lat="43.296094" lon="-2.305662">
        <ele>56.1</ele>
      </trkpt>
      <trkpt lat="43.296277" lon="-2.305756">
        <ele>53.9</ele>
      </trkpt>
      <trkpt lat="43.296513" lon="-2.305934">
        <ele>50.1</ele>
      </trkpt>
      <trkpt lat="43.296722" lon="-2.306158">
        <ele>42.6</ele>
      </trkpt>
      <trkpt lat="43.296855" lon="-2.306366">
        <ele>36.6</ele>
      </trkpt>
      <trkpt lat="43.296943" lon="-2.306456">
        <ele>32.1</ele>
      </trkpt>
      <trkpt lat="43.297043" lon="-2.306485">
        <ele>28.1</ele>
      </trkpt>
      <trkpt lat="43.29717" lon="-2.306485">
        <ele>23.0</ele>
      </trkpt>
      <trkpt lat="43.29727" lon="-2.306496">
        <ele>17.1</ele>
      </trkpt>
      <trkpt lat="43.297326" lon="-2.306485">
        <ele>12.5</ele>
      </trkpt>
      <trkpt lat="43.297377" lon="-2.306518">
        <ele>8.1</ele>
      </trkpt>
      <trkpt lat="43.297406" lon="-2.306549">
        <ele>5.7</ele>
      </trkpt>
      <trkpt lat="43.297439" lon="-2.306575">
        <ele>3.3</ele>
      </trkpt>
      <trkpt lat="43.297493" lon="-2.306672">
        <ele>0.3</ele>
      </trkpt>
      <trkpt lat="43.297514" lon="-2.306787">
        <ele>-0.4</ele>
      </trkpt>
      <trkpt lat="43.297523" lon="-2.307025">
        <ele>-1.1</ele>
      </trkpt>
      <trkpt lat="43.297522" lon="-2.307128">
        <ele>-1.7</ele>
      </trkpt>
      <trkpt lat="43.297497" lon="-2.307224">
        <ele>0.1</ele>
      </trkpt>
      <trkpt lat="43.297493" lon="-2.307332">
        <ele>5.9</ele>
      </trkpt>
      <trkpt lat="43.297424" lon="-2.30751">
        <ele>16.4</ele>
      </trkpt>
      <trkpt lat="43.297396" lon="-2.307578">
        <ele>16.4</ele>
      </trkpt>
      <trkpt lat="43.297374" lon="-2.307683">
        <ele>14.7</ele>
      </trkpt>
      <trkpt lat="43.297361" lon="-2.307735">
        <ele>13.8</ele>
      </trkpt>
      <trkpt lat="43.297344" lon="-2.307814">
        <ele>13.0</ele>
      </trkpt>
      <trkpt lat="43.297327" lon="-2.307958">
        <ele>12.3</ele>
      </trkpt>
      <trkpt lat="43.297322" lon="-2.308083">
        <ele>11.7</ele>
      </trkpt>
      <trkpt lat="43.297325" lon="-2.308265">
        <ele>10.5</ele>
      </trkpt>
      <trkpt lat="43.297338" lon="-2.308399">
        <ele>9.9</ele>
      </trkpt>
      <trkpt lat="43.297358" lon="-2.308473">
        <ele>9.7</ele>
      </trkpt>
      <trkpt lat="43.297401" lon="-2.308547">
        <ele>9.2</ele>
      </trkpt>
      <trkpt lat="43.297454" lon="-2.3086">
        <ele>8.6</ele>
      </trkpt>
      <trkpt lat="43.297464" lon="-2.308608">
        <ele>8.4</ele>
      </trkpt>
      <trkpt lat="43.297504" lon="-2.308647">
        <ele>7.8</ele>
      </trkpt>
      <trkpt lat="43.297542" lon="-2.308688">
        <ele>7.2</ele>
      </trkpt>
      <trkpt lat="43.297567" lon="-2.308741">
        <ele>6.6</ele>
      </trkpt>
      <trkpt lat="43.297568" lon="-2.308831">
        <ele>6.2</ele>
      </trkpt>
      <trkpt lat="43.297569" lon="-2.308897">
        <ele>6.0</ele>
      </trkpt>
      <trkpt lat="43.297547" lon="-2.308982">
        <ele>6.3</ele>
      </trkpt>
      <trkpt lat="43.297517" lon="-2.309046">
        <ele>6.6</ele>
      </trkpt>
      <trkpt lat="43.297482" lon="-2.309092">
        <ele>7.0</ele>
      </trkpt>
      <trkpt lat="43.297467" lon="-2.30913">
        <ele>7.2</ele>
      </trkpt>
      <trkpt lat="43.29744" lon="-2.309255">
        <ele>8.0</ele>
      </trkpt>
      <trkpt lat="43.297446" lon="-2.309362">
        <ele>8.8</ele>
      </trkpt>
      <trkpt lat="43.297421" lon="-2.309426">
        <ele>9.6</ele>
      </trkpt>
      <trkpt lat="43.297398" lon="-2.309458">
        <ele>10.0</ele>
      </trkpt>
      <trkpt lat="43.297374" lon="-2.309467">
        <ele>10.3</ele>
      </trkpt>
      <trkpt lat="43.297358" lon="-2.309537">
        <ele>11.1</ele>
      </trkpt>
      <trkpt lat="43.297322" lon="-2.309552">
        <ele>11.6</ele>
      </trkpt>
      <trkpt lat="43.297317" lon="-2.309583">
        <ele>11.9</ele>
      </trkpt>
      <trkpt lat="43.297342" lon="-2.309662">
        <ele>12.4</ele>
      </trkpt>
      <trkpt lat="43.297338" lon="-2.309693">
        <ele>12.7</ele>
      </trkpt>
      <trkpt lat="43.297279" lon="-2.309934">
        <ele>15.3</ele>
      </trkpt>
      <trkpt lat="43.297214" lon="-2.310138">
        <ele>16.7</ele>
      </trkpt>
      <trkpt lat="43.297197" lon="-2.310213">
        <ele>17.1</ele>
      </trkpt>
      <trkpt lat="43.297196" lon="-2.310317">
        <ele>17.2</ele>
      </trkpt>
      <trkpt lat="43.297173" lon="-2.310418">
        <ele>17.4</ele>
      </trkpt>
      <trkpt lat="43.297187" lon="-2.310464">
        <ele>17.1</ele>
      </trkpt>
      <trkpt lat="43.297123" lon="-2.310536">
        <ele>17.9</ele>
      </trkpt>
      <trkpt lat="43.296952" lon="-2.310712">
        <ele>21.7</ele>
      </trkpt>
      <trkpt lat="43.296875" lon="-2.310768">
        <ele>23.4</ele>
      </trkpt>
      <trkpt lat="43.296791" lon="-2.310856">
        <ele>25.1</ele>
      </trkpt>
      <trkpt lat="43.296733" lon="-2.310878">
        <ele>26.3</ele>
      </trkpt>
      <trkpt lat="43.296689" lon="-2.310923">
        <ele>27.7</ele>
      </trkpt>
      <trkpt lat="43.296683" lon="-2.310965">
        <ele>28.4</ele>
      </trkpt>
      <trkpt lat="43.296764" lon="-2.311038">
        <ele>26.7</ele>
      </trkpt>
      <trkpt lat="43.296823" lon="-2.311112">
        <ele>24.1</ele>
      </trkpt>
      <trkpt lat="43.296795" lon="-2.311154">
        <ele>24.8</ele>
      </trkpt>
      <trkpt lat="43.29667" lon="-2.311284">
        <ele>28.2</ele>
      </trkpt>
      <trkpt lat="43.296616" lon="-2.311311">
        <ele>30.0</ele>
      </trkpt>
      <trkpt lat="43.29654" lon="-2.311362">
        <ele>32.9</ele>
      </trkpt>
      <trkpt lat="43.296519" lon="-2.311395">
        <ele>34.1</ele>
      </trkpt>
      <trkpt lat="43.296506" lon="-2.311447">
        <ele>35.3</ele>
      </trkpt>
      <trkpt lat="43.296519" lon="-2.311487">
        <ele>35.1</ele>
      </trkpt>
      <trkpt lat="43.296543" lon="-2.311538">
        <ele>34.1</ele>
      </trkpt>
      <trkpt lat="43.296536" lon="-2.311576">
        <ele>35.0</ele>
      </trkpt>
      <trkpt lat="43.296507" lon="-2.311674">
        <ele>38.9</ele>
      </trkpt>
      <trkpt lat="43.296476" lon="-2.311704">
        <ele>42.3</ele>
      </trkpt>
      <trkpt lat="43.29645" lon="-2.311741">
        <ele>45.4</ele>
      </trkpt>
      <trkpt lat="43.29635" lon="-2.311858">
        <ele>55.5</ele>
      </trkpt>
      <trkpt lat="43.29626" lon="-2.311917">
        <ele>63.4</ele>
      </trkpt>
      <trkpt lat="43.296235" lon="-2.311933">
        <ele>65.6</ele>
      </trkpt>
      <trkpt lat="43.296169" lon="-2.312013">
        <ele>71.5</ele>
      </trkpt>
      <trkpt lat="43.296131" lon="-2.312141">
        <ele>75.0</ele>
      </trkpt>
      <trkpt lat="43.296143" lon="-2.312222">
        <ele>74.9</ele>
      </trkpt>
      <trkpt lat="43.296168" lon="-2.312303">
        <ele>73.8</ele>
      </trkpt>
      <trkpt lat="43.296175" lon="-2.312339">
        <ele>73.7</ele>
      </trkpt>
      <trkpt lat="43.296166" lon="-2.312387">
        <ele>75.0</ele>
      </trkpt>
      <trkpt lat="43.296133" lon="-2.312415">
        <ele>77.7</ele>
      </trkpt>
      <trkpt lat="43.296084" lon="-2.312432">
        <ele>80.8</ele>
      </trkpt>
      <trkpt lat="43.296048" lon="-2.312518">
        <ele>82.9</ele>
      </trkpt>
      <trkpt lat="43.296018" lon="-2.312563">
        <ele>84.1</ele>
      </trkpt>
      <trkpt lat="43.296012" lon="-2.312584">
        <ele>84.3</ele>
      </trkpt>
      <trkpt lat="43.296" lon="-2.312584">
        <ele>84.6</ele>
      </trkpt>
      <trkpt lat="43.295999" lon="-2.312599">
        <ele>84.7</ele>
      </trkpt>
      <trkpt lat="43.296001" lon="-2.312622">
        <ele>84.8</ele>
      </trkpt>
      <trkpt lat="43.296037" lon="-2.312769">
        <ele>84.6</ele>
      </trkpt>
      <trkpt lat="43.296066" lon="-2.312861">
        <ele>84.4</ele>
      </trkpt>
      <trkpt lat="43.296099" lon="-2.312977">
        <ele>83.4</ele>
      </trkpt>
      <trkpt lat="43.296146" lon="-2.313036">
        <ele>79.8</ele>
      </trkpt>
      <trkpt lat="43.296155" lon="-2.31308">
        <ele>78.1</ele>
      </trkpt>
      <trkpt lat="43.29617" lon="-2.313195">
        <ele>72.9</ele>
      </trkpt>
      <trkpt lat="43.296206" lon="-2.313274">
        <ele>66.9</ele>
      </trkpt>
      <trkpt lat="43.296229" lon="-2.313384">
        <ele>62.3</ele>
      </trkpt>
      <trkpt lat="43.296291" lon="-2.313455">
        <ele>55.6</ele>
      </trkpt>
      <trkpt lat="43.296351" lon="-2.313547">
        <ele>48.6</ele>
      </trkpt>
      <trkpt lat="43.296371" lon="-2.313615">
        <ele>46.4</ele>
      </trkpt>
      <trkpt lat="43.296353" lon="-2.313694">
        <ele>48.5</ele>
      </trkpt>
      <trkpt lat="43.296395" lon="-2.313866">
        <ele>47.7</ele>
      </trkpt>
      <trkpt lat="43.296419" lon="-2.313946">
        <ele>44.6</ele>
      </trkpt>
      <trkpt lat="43.296378" lon="-2.314032">
        <ele>44.7</ele>
      </trkpt>
      <trkpt lat="43.296348" lon="-2.314083">
        <ele>44.8</ele>
      </trkpt>
      <trkpt lat="43.296295" lon="-2.314132">
        <ele>47.0</ele>
      </trkpt>
      <trkpt lat="43.29627" lon="-2.314179">
        <ele>47.7</ele>
      </trkpt>
      <trkpt lat="43.296199" lon="-2.314245">
        <ele>51.0</ele>
      </trkpt>
      <trkpt lat="43.296171" lon="-2.314307">
        <ele>51.6</ele>
      </trkpt>
      <trkpt lat="43.296139" lon="-2.314321">
        <ele>52.7</ele>
      </trkpt>
      <trkpt lat="43.29611" lon="-2.314334">
        <ele>53.5</ele>
      </trkpt>
      <trkpt lat="43.296109" lon="-2.314356">
        <ele>53.2</ele>
      </trkpt>
      <trkpt lat="43.296146" lon="-2.314394">
        <ele>51.6</ele>
      </trkpt>
      <trkpt lat="43.296169" lon="-2.314438">
        <ele>50.4</ele>
      </trkpt>
      <trkpt lat="43.296174" lon="-2.314505">
        <ele>49.4</ele>
      </trkpt>
      <trkpt lat="43.29617" lon="-2.314549">
        <ele>48.9</ele>
      </trkpt>
      <trkpt lat="43.296159" lon="-2.314626">
        <ele>48.2</ele>
      </trkpt>
      <trkpt lat="43.296167" lon="-2.314692">
        <ele>47.5</ele>
      </trkpt>
      <trkpt lat="43.296436" lon="-2.314887">
        <ele>39.2</ele>
      </trkpt>
      <trkpt lat="43.296495" lon="-2.314911">
        <ele>36.4</ele>
      </trkpt>
      <trkpt lat="43.296527" lon="-2.314928">
        <ele>34.8</ele>
      </trkpt>
      <trkpt lat="43.296558" lon="-2.314973">
        <ele>33.7</ele>
      </trkpt>
      <trkpt lat="43.296634" lon="-2.315126">
        <ele>31.3</ele>
      </trkpt>
      <trkpt lat="43.296704" lon="-2.315322">
        <ele>29.3</ele>
      </trkpt>
      <trkpt lat="43.296726" lon="-2.315448">
        <ele>28.7</ele>
      </trkpt>
      <trkpt lat="43.296789" lon="-2.315502">
        <ele>24.9</ele>
      </trkpt>
      <trkpt lat="43.296806" lon="-2.315562">
        <ele>23.8</ele>
      </trkpt>
      <trkpt lat="43.296831" lon="-2.315622">
        <ele>22.3</ele>
      </trkpt>
      <trkpt lat="43.296855" lon="-2.315645">
        <ele>20.9</ele>
      </trkpt>
      <trkpt lat="43.296874" lon="-2.315757">
        <ele>19.8</ele>
      </trkpt>
      <trkpt lat="43.296924" lon="-2.315909">
        <ele>15.8</ele>
      </trkpt>
      <trkpt lat="43.296925" lon="-2.316025">
        <ele>13.3</ele>
      </trkpt>
      <trkpt lat="43.296915" lon="-2.316059">
        <ele>13.0</ele>
      </trkpt>
      <trkpt lat="43.296863" lon="-2.316128">
        <ele>13.8</ele>
      </trkpt>
      <trkpt lat="43.296841" lon="-2.316201">
        <ele>13.5</ele>
      </trkpt>
      <trkpt lat="43.296852" lon="-2.316227">
        <ele>12.7</ele>
      </trkpt>
      <trkpt lat="43.296876" lon="-2.316307">
        <ele>10.9</ele>
      </trkpt>
      <trkpt lat="43.296859" lon="-2.316329">
        <ele>11.0</ele>
      </trkpt>
      <trkpt lat="43.296737" lon="-2.316441">
        <ele>12.4</ele>
      </trkpt>
      <trkpt lat="43.296591" lon="-2.316467">
        <ele>15.2</ele>
      </trkpt>
      <trkpt lat="43.296506" lon="-2.316462">
        <ele>17.0</ele>
      </trkpt>
      <trkpt lat="43.296411" lon="-2.316518">
        <ele>17.8</ele>
      </trkpt>
      <trkpt lat="43.296371" lon="-2.316557">
        <ele>18.0</ele>
      </trkpt>
      <trkpt lat="43.296224" lon="-2.316598">
        <ele>21.3</ele>
      </trkpt>
      <trkpt lat="43.296125" lon="-2.316644">
        <ele>23.8</ele>
      </trkpt>
      <trkpt lat="43.29607" lon="-2.31667">
        <ele>25.1</ele>
      </trkpt>
      <trkpt lat="43.296086" lon="-2.31672">
        <ele>24.3</ele>
      </trkpt>
      <trkpt lat="43.296095" lon="-2.316779">
        <ele>23.8</ele>
      </trkpt>
      <trkpt lat="43.296102" lon="-2.31684">
        <ele>23.4</ele>
      </trkpt>
      <trkpt lat="43.296149" lon="-2.317026">
        <ele>22.0</ele>
      </trkpt>
      <trkpt lat="43.296084" lon="-2.317143">
        <ele>24.7</ele>
      </trkpt>
      <trkpt lat="43.295956" lon="-2.317296">
        <ele>28.6</ele>
      </trkpt>
      <trkpt lat="43.295669" lon="-2.317509">
        <ele>34.2</ele>
      </trkpt>
      <trkpt lat="43.295544" lon="-2.317577">
        <ele>36.2</ele>
      </trkpt>
      <trkpt lat="43.295441" lon="-2.31762">
        <ele>38.1</ele>
      </trkpt>
      <trkpt lat="43.295403" lon="-2.317714">
        <ele>41.0</ele>
      </trkpt>
      <trkpt lat="43.295392" lon="-2.317737">
        <ele>41.7</ele>
      </trkpt>
      <trkpt lat="43.295384" lon="-2.317755">
        <ele>42.3</ele>
      </trkpt>
      <trkpt lat="43.295341" lon="-2.317887">
        <ele>45.6</ele>
      </trkpt>
      <trkpt lat="43.295359" lon="-2.318025">
        <ele>48.4</ele>
      </trkpt>
      <trkpt lat="43.295339" lon="-2.318249">
        <ele>56.0</ele>
      </trkpt>
      <trkpt lat="43.295309" lon="-2.318486">
        <ele>63.4</ele>
      </trkpt>
      <trkpt lat="43.295205" lon="-2.318799">
        <ele>72.5</ele>
      </trkpt>
      <trkpt lat="43.295176" lon="-2.318904">
        <ele>74.9</ele>
      </trkpt>
      <trkpt lat="43.295159" lon="-2.318969">
        <ele>76.0</ele>
      </trkpt>
      <trkpt lat="43.295123" lon="-2.319114">
        <ele>78.5</ele>
      </trkpt>
      <trkpt lat="43.295058" lon="-2.319277">
        <ele>81.1</ele>
      </trkpt>
      <trkpt lat="43.294823" lon="-2.319649">
        <ele>87.2</ele>
      </trkpt>
      <trkpt lat="43.294703" lon="-2.319799">
        <ele>89.6</ele>
      </trkpt>
      <trkpt lat="43.294533" lon="-2.319969">
        <ele>91.3</ele>
      </trkpt>
      <trkpt lat="43.294333" lon="-2.320197">
        <ele>94.9</ele>
      </trkpt>
      <trkpt lat="43.29414" lon="-2.320445">
        <ele>99.3</ele>
      </trkpt>
      <trkpt lat="43.293947" lon="-2.320693">
        <ele>101.3</ele>
      </trkpt>
      <trkpt lat="43.29379" lon="-2.320941">
        <ele>103.9</ele>
      </trkpt>
      <trkpt lat="43.293715" lon="-2.321073">
        <ele>104.4</ele>
      </trkpt>
      <trkpt lat="43.293722" lon="-2.321122">
        <ele>104.5</ele>
      </trkpt>
      <trkpt lat="43.293732" lon="-2.321189">
        <ele>104.3</ele>
      </trkpt>
      <trkpt lat="43.293735" lon="-2.321352">
        <ele>103.1</ele>
      </trkpt>
      <trkpt lat="43.293728" lon="-2.32141">
        <ele>102.6</ele>
      </trkpt>
      <trkpt lat="43.293716" lon="-2.321522">
        <ele>101.4</ele>
      </trkpt>
      <trkpt lat="43.293745" lon="-2.321626">
        <ele>98.5</ele>
      </trkpt>
      <trkpt lat="43.293767" lon="-2.322083">
        <ele>93.9</ele>
      </trkpt>
      <trkpt lat="43.293793" lon="-2.322181">
        <ele>92.7</ele>
      </trkpt>
      <trkpt lat="43.293835" lon="-2.322255">
        <ele>91.1</ele>
      </trkpt>
      <trkpt lat="43.293936" lon="-2.322338">
        <ele>87.2</ele>
      </trkpt>
      <trkpt lat="43.294049" lon="-2.322503">
        <ele>82.9</ele>
      </trkpt>
      <trkpt lat="43.294093" lon="-2.322813">
        <ele>82.6</ele>
      </trkpt>
      <trkpt lat="43.29417" lon="-2.323097">
        <ele>80.8</ele>
      </trkpt>
      <trkpt lat="43.294278" lon="-2.323374">
        <ele>76.7</ele>
      </trkpt>
      <trkpt lat="43.294387" lon="-2.323652">
        <ele>74.4</ele>
      </trkpt>
      <trkpt lat="43.294391" lon="-2.323661">
        <ele>74.3</ele>
      </trkpt>
      <trkpt lat="43.294248" lon="-2.323801">
        <ele>79.4</ele>
      </trkpt>
      <trkpt lat="43.29413" lon="-2.324063">
        <ele>88.9</ele>
      </trkpt>
      <trkpt lat="43.294134" lon="-2.324362">
        <ele>96.2</ele>
      </trkpt>
      <trkpt lat="43.29421" lon="-2.324622">
        <ele>100.5</ele>
      </trkpt>
      <trkpt lat="43.294437" lon="-2.324796">
        <ele>96.8</ele>
      </trkpt>
      <trkpt lat="43.29453" lon="-2.324957">
        <ele>97.9</ele>
      </trkpt>
      <trkpt lat="43.294552" lon="-2.325383">
        <ele>105.9</ele>
      </trkpt>
      <trkpt lat="43.294587" lon="-2.325624">
        <ele>111.5</ele>
      </trkpt>
      <trkpt lat="43.29465" lon="-2.325876">
        <ele>114.3</ele>
      </trkpt>
      <trkpt lat="43.294762" lon="-2.326097">
        <ele>112.9</ele>
      </trkpt>
      <trkpt lat="43.294868" lon="-2.326256">
        <ele>113.2</ele>
        <name>Deba eta Zumaia arteko itsasertzeko Paisaia natural babestua (Paisaje Natural Protegido del tramo litoral Deba-Zumaia), Deba (Deva), Debabarrena (Bajo Deba)</name>
        <extensions>
          <oa:Extension>
            <oa:mapZoom>16</oa:mapZoom>
          </oa:Extension>
        </extensions>
      </trkpt>
      <trkpt lat="43.294911" lon="-2.32632">
        <ele>113.4</ele>
      </trkpt>
      <trkpt lat="43.294929" lon="-2.326486">
        <ele>115.3</ele>
      </trkpt>
      <trkpt lat="43.294925" lon="-2.326641">
        <ele>116.5</ele>
      </trkpt>
      <trkpt lat="43.294915" lon="-2.326741">
        <ele>117.0</ele>
      </trkpt>
      <trkpt lat="43.294893" lon="-2.32684">
        <ele>117.6</ele>
      </trkpt>
      <trkpt lat="43.294839" lon="-2.326961">
        <ele>119.2</ele>
      </trkpt>
      <trkpt lat="43.294626" lon="-2.327165">
        <ele>120.4</ele>
      </trkpt>
      <trkpt lat="43.294495" lon="-2.327249">
        <ele>117.7</ele>
      </trkpt>
      <trkpt lat="43.294452" lon="-2.327287">
        <ele>116.6</ele>
      </trkpt>
      <trkpt lat="43.294406" lon="-2.327311">
        <ele>115.9</ele>
      </trkpt>
      <trkpt lat="43.294267" lon="-2.327355">
        <ele>114.6</ele>
      </trkpt>
      <trkpt lat="43.294267" lon="-2.327385">
        <ele>114.3</ele>
      </trkpt>
      <trkpt lat="43.294294" lon="-2.327442">
        <ele>113.6</ele>
      </trkpt>
      <trkpt lat="43.294336" lon="-2.32746">
        <ele>113.4</ele>
      </trkpt>
      <trkpt lat="43.294369" lon="-2.327498">
        <ele>113.1</ele>
      </trkpt>
      <trkpt lat="43.29443" lon="-2.327639">
        <ele>112.5</ele>
      </trkpt>
      <trkpt lat="43.294488" lon="-2.327831">
        <ele>113.4</ele>
      </trkpt>
      <trkpt lat="43.294496" lon="-2.327905">
        <ele>114.3</ele>
      </trkpt>
      <trkpt lat="43.294551" lon="-2.327956">
        <ele>115.0</ele>
      </trkpt>
      <trkpt lat="43.294667" lon="-2.328057">
        <ele>115.9</ele>
      </trkpt>
      <trkpt lat="43.29476" lon="-2.328241">
        <ele>117.9</ele>
      </trkpt>
      <trkpt lat="43.294811" lon="-2.328481">
        <ele>121.3</ele>
      </trkpt>
      <trkpt lat="43.294846" lon="-2.328734">
        <ele>124.4</ele>
      </trkpt>
      <trkpt lat="43.294873" lon="-2.328846">
        <ele>124.6</ele>
      </trkpt>
      <trkpt lat="43.294932" lon="-2.329137">
        <ele>125.2</ele>
      </trkpt>
      <trkpt lat="43.294945" lon="-2.329237">
        <ele>125.5</ele>
      </trkpt>
      <trkpt lat="43.294887" lon="-2.329403">
        <ele>129.2</ele>
      </trkpt>
      <trkpt lat="43.294863" lon="-2.32953">
        <ele>131.8</ele>
      </trkpt>
      <trkpt lat="43.294846" lon="-2.329935">
        <ele>137.4</ele>
      </trkpt>
      <trkpt lat="43.294928" lon="-2.330382">
        <ele>133.9</ele>
      </trkpt>
      <trkpt lat="43.294828" lon="-2.330366">
        <ele>136.8</ele>
      </trkpt>
      <trkpt lat="43.294769" lon="-2.33034">
        <ele>138.4</ele>
      </trkpt>
      <trkpt lat="43.294647" lon="-2.330261">
        <ele>140.9</ele>
      </trkpt>
      <trkpt lat="43.294594" lon="-2.330196">
        <ele>142.1</ele>
      </trkpt>
      <trkpt lat="43.294584" lon="-2.330155">
        <ele>142.8</ele>
      </trkpt>
      <trkpt lat="43.294589" lon="-2.330107">
        <ele>143.4</ele>
      </trkpt>
      <trkpt lat="43.294448" lon="-2.329929">
        <ele>145.4</ele>
      </trkpt>
      <trkpt lat="43.294378" lon="-2.32987">
        <ele>145.6</ele>
      </trkpt>
      <trkpt lat="43.294163" lon="-2.329839">
        <ele>145.3</ele>
      </trkpt>
      <trkpt lat="43.294025" lon="-2.329831">
        <ele>146.3</ele>
      </trkpt>
      <trkpt lat="43.293756" lon="-2.329831">
        <ele>148.9</ele>
      </trkpt>
      <trkpt lat="43.293744" lon="-2.329732">
        <ele>149.5</ele>
      </trkpt>
      <trkpt lat="43.293695" lon="-2.329664">
        <ele>150.4</ele>
      </trkpt>
      <trkpt lat="43.293568" lon="-2.329456">
        <ele>151.4</ele>
      </trkpt>
      <trkpt lat="43.293513" lon="-2.329336">
        <ele>148.9</ele>
        <name>Itxaspe, Deba (Deva), Debabarrena (Bajo Deba)</name>
        <extensions>
          <oa:Extension>
            <oa:mapZoom>15</oa:mapZoom>
          </oa:Extension>
        </extensions>
      </trkpt>
    </trkseg>
  </trk>
</gpx>